[Satellite]
VERSION=1.1
NAME=IRIDIUM 19 [+]
NICKNAME=IRIDIUM 19 [+]
TLE1=1 24965U 97056A   15055.20248500  .00000411  00000-0  13973-3 0  9992
TLE2=2 24965  86.3979 311.4830 0002026  99.2113 260.9312 14.34215227911583
